OBJECT PN
1 43638U 98067PN  19197.44174076  .00004779  00000-0  68560-4 0  9990
2 43638  51.6361 208.8920 0002214 192.3488 167.7451 15.58209862 44039
ONEWEB-0011
1 44062U 19010F   19196.54744799 +.00000104 +00000-0 +24225-3 0  9995
2 44062 087.8861 041.7801 0001724 073.7520 286.3800 13.15297868018562
ONEWEB-0012
1 44057U 19010A   19196.46323264  .00000008  00000-0 -14037-4 0  9995
2 44057  87.8964  41.7693 0001670  75.7214 284.4101 13.15299243 18349
PRATHAM
1 41783U 16059A   19197.16198123  .00000026  00000-0  14327-4 0  9991
2 41783  98.0658 256.1351 0032293 298.7881  61.0079 14.62999325149564
PRISMA (TANGO)
1 36827U 10028F   19197.06559155  .00000029  00000-0  22288-4 0  9997
2 36827  98.5240  12.2715 0041476 278.9782  80.6714 14.42402887469778
RADIO ROSTO
1 23439U 94085A   19196.92145253 -.00000027 +00000-0 +43493-3 0  9990
2 23439 064.8180 072.0920 0146174 107.8923 253.8001 11.27568340010965
RADIX
1 43550U 98067NY  19197.51459771  .00018664  00000-0  17641-3 0  9990
2 43550  51.6330 196.5688 0003097 277.8338  82.2306 15.67043347 57527
RAINCUBE
1 43548U 98067NW  19196.66776590  .00007220  00000-0  87351-4 0  9995
2 43548  51.6348 206.7059 0004533 239.5261 120.5285 15.61885539 57292
RED-EYE
1 44364U 98067QJ  19197.47886507  .00001126  00000-0  26485-4 0  9992
2 44364  51.6422 215.8916 0008584 151.9204 208.2248 15.51476736  2982
SAPPHIRE
1 39088U 13009C   19197.44814305 -.00000014  00000-0  10591-4 0  9993
2 39088  98.4964  40.1570 0010909 200.3724 159.7027 14.34194096334196
SAUDISAT 1C
1 27607U 02058C   19197.46985192 -.00000059  00000-0  12677-4 0  9990
2 27607  64.5558 324.6677 0080391 251.1789 108.0582 14.75558643891130
SENTINEL 3B
1 43437U 18039A   19197.14729765 -.00000008  00000-0  14942-4 0  9993
2 43437  98.6285 263.6528 0001726  98.3669 261.7707 14.26735753 63642
SIRIUS 3
1 25492U 98056B   19196.84203219 -.00000189 +00000-0 +00000-0 0  9994
2 25492 007.6051 049.2736 0004421 344.4370 021.8910 00.99037864076088
SIRIUSSAT-1
1 43595U 98067PG  19197.10268265  .00008769  00000-0  10621-3 0  9996
2 43595  51.6343 205.8462 0002532 211.0685 149.0159 15.61532435 52126
SIRIUSSAT-2
1 43596U 98067PH  19197.45585510  .00009149  00000-0  11117-3 0  9994
2 43596  51.6355 204.4917 0003070 213.4610 146.6190 15.61382686 52176
SKYNET 5D
1 39034U 12075A   19197.13282847  .00000088  00000-0  00000+0 0  9991
2 39034   0.0693   2.3425 0003751 121.0187 270.8772  1.00273197 24178
SOCRATES
1 39768U 14029C   19193.79870718  .00000055  00000-0  12909-4 0  9994
2 39768  97.8653 290.3846 0007927  23.2768 336.8789 14.84359129278106
SOLRAD 1 (GREB)
1    46U 60007B   19197.21085610 -.00000046  00000-0  14054-4 0  9992
2    46  66.6892 237.7416 0207490  20.5375 340.3919 14.49233193 90235
SPEKTR R
1 37755U 11037A   18264.20000000 +.00000083 +00000-0 +00000-0 0  9993
2 37755 051.5880 113.3680 8331057 181.9940 359.9340 00.11829941003008
SPIRALE B
1 33752U 09008D   19196.76158512  .00001809  00000-0  38191-3 0  9991
2 33752   2.1456 328.1089 6920834  97.5409 339.7890  2.74863842 95497
SPOOQY1
1 44332U 98067QH  19197.07731106  .00004059  00000-0  73014-4 0  9995
2 44332  51.6393 217.7140 0005739 184.7040 175.3897 15.52315080  4469
TACSAT 4
1 37818U 11052A   19196.55582882 +.00000093 +00000-0 +20501-3 0  9998
2 37818 063.2181 353.8070 4588300 220.9409 194.7470 06.02814533171553
TECHEDSAT 8
1 44032U 98067PY  19197.27504761  .00016719  00000-0  20436-3 0  9994
2 44032  51.6360 210.7814 0002592 267.4718  92.5978 15.60549236 25853
TEMPEST-D
1 43547U 98067NV  19197.05127822  .00002364  00000-0  37297-4 0  9994
2 43547  51.6369 209.2839 0005112 225.7433 134.3140 15.58188395 56845
TERRA
1 25994U 99068A   19197.20908357 -.00000627  00000-0 -12918-3 0  9993
2 25994  98.2052 271.3379 0001280  88.2030 271.9382 14.57109971 41204
THEMIS A
1 30580U 07004A   19196.53446105 -.00000073  00000-0  00000+0 0  9991
2 30580   9.6964  87.7571 8384889 313.6246   2.7803  0.87838008 43739
THEMIS D
1 30797U 07004D   19195.95109006 -.00000117  00000-0  00000+0 0  9991
2 30797   8.4869  50.4733 8588717 356.2898   0.7084  0.71853195 43601
TIANGONG-2
1 41765U 16057A   19197.35695380  .00002496  00000-0  32281-4 0  9999
2 41765  42.7820 152.6824 0006338 106.5820  29.6057 15.61905563161602
TIROS 1
1    29U 60002B   19197.22982807 -.00000175  00000-0  49186-5 0  9991
2    29  48.3801 100.0231 0024373 230.8445 129.0301 14.74310413168895
UBAKUSAT
1 43466U 98067NP  19197.40837416  .00015208  00000-0  14529-3 0  9993
2 43466  51.6349 193.6642 0000497  29.6576 330.4448 15.66954934 67268
UNITE
1 44031U 98067PX  19197.13366062  .00004098  00000-0  64856-4 0  9990
2 44031  51.6374 214.3378 0002672 247.1018 112.9691 15.55922463 25815
VANGUARD 2
1    11U 59001A   19196.90708622 -.00000013 +00000-0 -13024-4 0  9997
2    11 032.8652 242.6217 1467950 146.0143 224.3838 11.85613931234901
VANGUARD 3
1    20U 59007A   19196.90529076 +.00000234 +00000-0 +80603-4 0  9997
2    20 033.3573 304.5604 1667917 276.1742 065.2181 11.55663566191543
XMM
1 25989U 99066A   19199.50109864 -.00000215  00000-0  00000+0 0  9993
2 25989  71.0042 331.2904 7573830  94.8646   0.4745  0.50129107 24709
YAOGAN 27
1 40878U 15040A   19197.43045057 -.00000044  00000-0  00000+0 0  9990
2 40878 100.2851 250.9656 0007792 275.4667  84.5559 13.15962130186687
